OBJECT_NAME,OBJECT_ID,EPOCH,MEAN_MOTION,ECCENTRICITY,INCLINATION,RA_OF_ASC_NODE,ARG_OF_PERICENTER,MEAN_ANOMALY,EPHEMERIS_TYPE,CLASSIFICATION_TYPE,NORAD_CAT_ID,ELEMENT_SET_NO,REV_AT_EPOCH,BSTAR,MEAN_MOTION_DOT,MEAN_MOTION_DDOT
SAUDISAT 2,2004-025F,2026-06-18T11:18:51.730848,14.56684550,.00235494,98.5507,169.4865,294.1244,65.7491,0,U,28371,999,16593,.51780167E-4,.182E-5,0
COSMOS 2407,2004-028A,2026-06-18T11:16:49.612224,13.76334826,.00378557,82.9608,73.8841,248.2126,285.6980,0,U,28380,999,10005,.50478623E-4,.64E-6,0
COSMOS 2414,2005-002A,2026-06-18T14:50:06.717984,13.87926632,.00393935,82.9497,42.5642,327.1304,32.7410,0,U,28521,999,8401,.25998554E-4,.46E-6,0
INMARSAT 4-F1,2005-009A,2026-06-18T10:20:50.104608,1.00271147,.0002595,5.1707,42.7662,44.5014,152.7205,0,U,28628,999,7768,0,.24E-6,0
SJ-7,2005-024A,2026-06-18T14:28:36.783264,15.21561340,.00162006,97.7278,199.7449,33.3423,326.8829,0,U,28737,999,14824,.27961213E-3,.625E-4,0
CUBESAT XI-V,2005-043F,2026-06-17T22:42:29.709216,14.72633352,.00137043,98.2987,324.5839,198.2082,161.8635,0,U,28895,999,10186,.18286399E-3,.1113E-4,0
HINODE (SOLAR-B),2006-041A,2026-06-18T11:31:01.285536,14.68624622,.00159788,98.0546,185.6133,285.2611,74.6828,0,U,29479,999,5506,.98344047E-4,.523E-5,0
SHIJIAN-6 02B (SJ-6 02B),2006-046B,2026-06-18T14:42:10.973664,15.01380923,.00154048,97.7152,198.6628,56.3827,303.8865,0,U,29506,999,7095,.98233949E-4,.1208E-4,0
DMSP 5D-3 F17 (USA 191),2006-050A,2026-06-18T14:00:50.882400,14.14993117,.00111274,98.7378,176.1255,55.7492,304.4734,0,U,29522,999,1262,.15304287E-4,-.14E-6,0
LAPAN-TUBSAT,2007-001A,2026-06-18T14:25:36.074208,14.85949049,.00119784,98.1337,168.8570,174.7713,185.3629,0,U,29709,999,5136,-.3344132E-5,-.87E-6,0
HAIYANG-1B,2007-010A,2026-06-18T09:40:51.212064,14.31027209,.00130895,98.3495,151.2014,192.6283,167.4575,0,U,31113,999,81,.43731439E-4,.73E-6,0
COSMO-SKYMED 2,2007-059A,2026-06-18T15:30:38.395872,14.82156051,.00013512,97.8886,353.2230,87.8897,272.2471,0,U,32376,999,222,.4340985E-4,.293E-5,0
CARTOSAT-2A,2008-021A,2026-06-18T14:27:21.053664,14.79240260,.00131975,97.7628,218.2628,104.5637,255.7040,0,U,32783,999,97901,.54021376E-4,.352E-5,0
CUTE-1.7+APD II (CO-65),2008-021C,2026-06-18T13:47:24.204480,15.09461529,.00096106,97.8275,151.0219,34.4891,325.6959,0,U,32785,999,98540,.27313031E-3,.431E-4,0
SEEDS II (CO-66),2008-021J,2026-06-18T10:35:22.533792,15.32786684,.00008895,97.7517,167.3987,357.5135,2.6101,0,U,32791,999,98748,.44622341E-3,.14056E-3,0
YUBILEINY (RS30),2008-025A,2026-06-18T13:07:46.592256,12.43179650,.00188111,82.5036,354.5939,310.8246,49.1202,0,U,32953,999,81986,.26113268E-3,.46E-6,0
FENGYUN 3A,2008-026A,2026-06-18T14:21:04.494816,14.19571403,.00096448,98.6883,110.4048,119.9737,240.2398,0,U,32958,999,93560,.4902108E-4,.6E-6,0
HUANJING 1A (HJ-1A),2008-041A,2026-06-18T13:58:31.093248,14.83988639,.00200516,97.6680,155.3669,130.4239,229.8729,0,U,33320,999,95861,.13377443E-3,.1066E-4,0
HUANJING 1B (HJ-1B),2008-041B,2026-06-18T14:52:01.952256,14.83318738,.0036145,97.6518,158.5701,176.1564,183.9935,0,U,33321,999,95862,.59596721E-4,.441E-5,0
SHIJIAN-6 03A (SJ-6 03A),2008-053A,2026-06-18T13:34:40.598688,15.17181023,.00114989,97.8402,202.9348,15.6697,344.4889,0,U,33408,999,96317,.32516945E-3,.6397E-4,0
SHIJIAN-6 03B (SJ-6 03B),2008-053B,2026-06-18T15:06:47.464992,15.04308771,.00206748,97.8566,189.5459,40.3246,319.9508,0,U,33409,999,96296,.39380766E-4,.486E-5,0
